KUIPER-00500            
1 68882U 26095U   26201.93031770  .00002082  00000+0  30203-3 0  9997
2 68882  51.9017 101.4449 0001456  58.2135 301.8969 14.79945869 12618
KUIPER-00502            
1 68883U 26095V   26201.91668981 -.01009532  00000+0 -59313-1 0  9997
2 68883  51.8907  80.0148 0005858  54.4181  99.1129 15.14248663  2996
KUIPER-00503            
1 68884U 26095W   26201.96674402  .00001992  00000+0  29007-3 0  9996
2 68884  51.8984  98.7734 0000888 103.7671 256.3391 14.79960519 12652
KUIPER-00504            
1 68885U 26095X   26201.92493653  .00002027  00000+0  29480-3 0  9995
2 68885  51.9023 106.4696 0000957  85.6951 274.4121 14.79938660 12540
KUIPER-00505            
1 68886U 26095Y   26201.96946070  .00002041  00000+0  29660-3 0  9992
2 68886  51.9026  96.2755 0000719 100.0045 260.0999 14.79949157 12680
KUIPER-00507            
1 68887U 26095Z   26201.91668981 -.00054677  00000+0 -77948-2 0  9995
2 68887  51.8991  86.2572 0001012 186.7948  49.9881 14.76590178  5674
KUIPER-00511            
1 68888U 26095AA  26201.91668981 -.01575111  00000+0 -11306+0 0  9991
2 68888  51.8949  80.6623 0004584  37.0809  99.9491 15.07477670  2376
KUIPER-00512            
1 68889U 26095AB  26201.12266679  .00001664  00000+0  24730-3 0  9996
2 68889  51.9027 102.5210 0000854 102.7164 257.3894 14.79931539 12523
KUIPER-00519            
1 68890U 26095AC  26201.87628043  .00002014  00000+0  29296-3 0  9999
2 68890  51.9029  89.2480 0002805  30.4254 329.6871 14.79956613 12777
KUIPER-00521            
1 68891U 26095AD  26201.91668981 -.00050003  00000+0 -52702-2 0  9990
2 68891  51.8988  82.9544 0001459 251.7108 237.1652 14.89040468  5441
KUIPER-00524            
1 68892U 26095AE  26201.87325548  .00001170  00000+0  19729-3 0  9997
2 68892  51.8993  90.6500 0002365 118.2682 241.8518 14.76420666 12750
KUIPER-00370            
1 68919U 26098A   26201.91668981 -.00082204  00000+0 -61018-2 0  9992
2 68919  51.8843 269.7694 0011555 277.3141 203.3701 15.02872543  5805
KUIPER-00380            
1 68920U 26098B   26201.91858178 -.00004933  00000+0 -15937-3 0  9996
2 68920  51.8740 267.0157 0007564 282.6249  77.3888 15.29135813 12502
KUIPER-00386            
1 68921U 26098C   26201.91668981 -.01172708  00000+0 -65722-1 0  9990
2 68921  51.8884 265.6190 0003051  10.8084 340.6375 15.15891860  4939
KUIPER-00388            
1 68922U 26098D   26201.91668981 -.00026247  00000+0 -37246-2 0  9997
2 68922  51.8995 273.8320 0001476  69.4865  31.4478 14.76422629  4786
KUIPER-00405            
1 68923U 26098E   26201.91668981 -.00067617  00000+0 -82811-2 0  9992
2 68923  51.9013 271.4239 0003070 336.1463 254.5789 14.83069086  5665
