{"fetched_at":"2026-07-21T07:06:26.959Z","source":"https://celestrak.org/NORAD/elements/gp.php?GROUP=kuiper&FORMAT=JSON","constellation":"kuiper","records":[{"OBJECT_NAME":"KUIPER-00500","OBJECT_ID":"2026-095U","EPOCH":"2026-07-20T22:19:39.449280","CLASSIFICATION_TYPE":"U","MEAN_MOTION":14.79945869,"ECCENTRICITY":0.0001456,"INCLINATION":51.9017,"RA_OF_ASC_NODE":101.4449,"ARG_OF_PERICENTER":58.2135,"MEAN_ANOMALY":301.8969,"EPHEMERIS_TYPE":0,"NORAD_CAT_ID":68882,"ELEMENT_SET_NO":999,"REV_AT_EPOCH":1261,"BSTAR":0.00030202604,"MEAN_MOTION_DOT":0.00002082,"MEAN_MOTION_DDOT":0},{"OBJECT_NAME":"KUIPER-00502","OBJECT_ID":"2026-095V","EPOCH":"2026-07-20T22:00:01.999584","CLASSIFICATION_TYPE":"U","MEAN_MOTION":15.14248663,"ECCENTRICITY":0.00058587,"INCLINATION":51.8907,"RA_OF_ASC_NODE":80.0148,"ARG_OF_PERICENTER":54.4181,"MEAN_ANOMALY":99.1129,"EPHEMERIS_TYPE":0,"NORAD_CAT_ID":68883,"ELEMENT_SET_NO":999,"REV_AT_EPOCH":299,"BSTAR":-0.059312731,"MEAN_MOTION_DOT":-0.01009532,"MEAN_MOTION_DDOT":0},{"OBJECT_NAME":"KUIPER-00503","OBJECT_ID":"2026-095W","EPOCH":"2026-07-20T23:12:06.683328","CLASSIFICATION_TYPE":"U","MEAN_MOTION":14.79960519,"ECCENTRICITY":0.00008883,"INCLINATION":51.8984,"RA_OF_ASC_NODE":98.7734,"ARG_OF_PERICENTER":103.7671,"MEAN_ANOMALY":256.3391,"EPHEMERIS_TYPE":0,"NORAD_CAT_ID":68884,"ELEMENT_SET_NO":999,"REV_AT_EPOCH":1265,"BSTAR":0.00029007483,"MEAN_MOTION_DOT":0.00001992,"MEAN_MOTION_DDOT":0},{"OBJECT_NAME":"KUIPER-00504","OBJECT_ID":"2026-095X","EPOCH":"2026-07-20T22:11:54.516192","CLASSIFICATION_TYPE":"U","MEAN_MOTION":14.7993866,"ECCENTRICITY":0.00009574,"INCLINATION":51.9023,"RA_OF_ASC_NODE":106.4696,"ARG_OF_PERICENTER":85.6951,"MEAN_ANOMALY":274.4121,"EPHEMERIS_TYPE":0,"NORAD_CAT_ID":68885,"ELEMENT_SET_NO":999,"REV_AT_EPOCH":1254,"BSTAR":0.00029479805,"MEAN_MOTION_DOT":0.00002027,"MEAN_MOTION_DDOT":0},{"OBJECT_NAME":"KUIPER-00505","OBJECT_ID":"2026-095Y","EPOCH":"2026-07-20T23:16:01.404480","CLASSIFICATION_TYPE":"U","MEAN_MOTION":14.79949157,"ECCENTRICITY":0.00007198,"INCLINATION":51.9026,"RA_OF_ASC_NODE":96.2755,"ARG_OF_PERICENTER":100.0045,"MEAN_ANOMALY":260.0999,"EPHEMERIS_TYPE":0,"NORAD_CAT_ID":68886,"ELEMENT_SET_NO":999,"REV_AT_EPOCH":1268,"BSTAR":0.00029660001,"MEAN_MOTION_DOT":0.00002041,"MEAN_MOTION_DDOT":0},{"OBJECT_NAME":"KUIPER-00507","OBJECT_ID":"2026-095Z","EPOCH":"2026-07-20T22:00:01.999584","CLASSIFICATION_TYPE":"U","MEAN_MOTION":14.76590178,"ECCENTRICITY":0.00010128,"INCLINATION":51.8991,"RA_OF_ASC_NODE":86.2572,"ARG_OF_PERICENTER":186.7948,"MEAN_ANOMALY":49.9881,"EPHEMERIS_TYPE":0,"NORAD_CAT_ID":68887,"ELEMENT_SET_NO":999,"REV_AT_EPOCH":567,"BSTAR":-0.0077948394,"MEAN_MOTION_DOT":-0.00054677,"MEAN_MOTION_DDOT":0},{"OBJECT_NAME":"KUIPER-00511","OBJECT_ID":"2026-095AA","EPOCH":"2026-07-20T22:00:01.999584","CLASSIFICATION_TYPE":"U","MEAN_MOTION":15.0747767,"ECCENTRICITY":0.00045845,"INCLINATION":51.8949,"RA_OF_ASC_NODE":80.6623,"ARG_OF_PERICENTER":37.0809,"MEAN_ANOMALY":99.9491,"EPHEMERIS_TYPE":0,"NORAD_CAT_ID":68888,"ELEMENT_SET_NO":999,"REV_AT_EPOCH":237,"BSTAR":-0.11306204,"MEAN_MOTION_DOT":-0.01575111,"MEAN_MOTION_DDOT":0},{"OBJECT_NAME":"KUIPER-00512","OBJECT_ID":"2026-095AB","EPOCH":"2026-07-20T02:56:38.410656","CLASSIFICATION_TYPE":"U","MEAN_MOTION":14.79931539,"ECCENTRICITY":0.00008548,"INCLINATION":51.9027,"RA_OF_ASC_NODE":102.521,"ARG_OF_PERICENTER":102.7164,"MEAN_ANOMALY":257.3894,"EPHEMERIS_TYPE":0,"NORAD_CAT_ID":68889,"ELEMENT_SET_NO":999,"REV_AT_EPOCH":1252,"BSTAR":0.0002473038,"MEAN_MOTION_DOT":0.00001664,"MEAN_MOTION_DDOT":0},{"OBJECT_NAME":"KUIPER-00519","OBJECT_ID":"2026-095AC","EPOCH":"2026-07-20T21:01:50.629152","CLASSIFICATION_TYPE":"U","MEAN_MOTION":14.79956613,"ECCENTRICITY":0.00028054,"INCLINATION":51.9029,"RA_OF_ASC_NODE":89.248,"ARG_OF_PERICENTER":30.4254,"MEAN_ANOMALY":329.6871,"EPHEMERIS_TYPE":0,"NORAD_CAT_ID":68890,"ELEMENT_SET_NO":999,"REV_AT_EPOCH":1277,"BSTAR":0.00029296411,"MEAN_MOTION_DOT":0.00002014,"MEAN_MOTION_DDOT":0},{"OBJECT_NAME":"KUIPER-00521","OBJECT_ID":"2026-095AD","EPOCH":"2026-07-20T22:00:01.999584","CLASSIFICATION_TYPE":"U","MEAN_MOTION":14.89040468,"ECCENTRICITY":0.0001459,"INCLINATION":51.8988,"RA_OF_ASC_NODE":82.9544,"ARG_OF_PERICENTER":251.7108,"MEAN_ANOMALY":237.1652,"EPHEMERIS_TYPE":0,"NORAD_CAT_ID":68891,"ELEMENT_SET_NO":999,"REV_AT_EPOCH":544,"BSTAR":-0.0052701791,"MEAN_MOTION_DOT":-0.00050003,"MEAN_MOTION_DDOT":0},{"OBJECT_NAME":"KUIPER-00524","OBJECT_ID":"2026-095AE","EPOCH":"2026-07-20T20:57:29.273472","CLASSIFICATION_TYPE":"U","MEAN_MOTION":14.76420666,"ECCENTRICITY":0.00023656,"INCLINATION":51.8993,"RA_OF_ASC_NODE":90.65,"ARG_OF_PERICENTER":118.2682,"MEAN_ANOMALY":241.8518,"EPHEMERIS_TYPE":0,"NORAD_CAT_ID":68892,"ELEMENT_SET_NO":999,"REV_AT_EPOCH":1275,"BSTAR":0.00019729219,"MEAN_MOTION_DOT":0.0000117,"MEAN_MOTION_DDOT":0},{"OBJECT_NAME":"KUIPER-00370","OBJECT_ID":"2026-098A","EPOCH":"2026-07-20T22:00:01.999584","CLASSIFICATION_TYPE":"U","MEAN_MOTION":15.02872543,"ECCENTRICITY":0.00115555,"INCLINATION":51.8843,"RA_OF_ASC_NODE":269.7694,"ARG_OF_PERICENTER":277.3141,"MEAN_ANOMALY":203.3701,"EPHEMERIS_TYPE":0,"NORAD_CAT_ID":68919,"ELEMENT_SET_NO":999,"REV_AT_EPOCH":580,"BSTAR":-0.0061018168,"MEAN_MOTION_DOT":-0.00082204,"MEAN_MOTION_DDOT":0},{"OBJECT_NAME":"KUIPER-00380","OBJECT_ID":"2026-098B","EPOCH":"2026-07-20T22:02:45.465792","CLASSIFICATION_TYPE":"U","MEAN_MOTION":15.29135813,"ECCENTRICITY":0.00075648,"INCLINATION":51.874,"RA_OF_ASC_NODE":267.0157,"ARG_OF_PERICENTER":282.6249,"MEAN_ANOMALY":77.3888,"EPHEMERIS_TYPE":0,"NORAD_CAT_ID":68920,"ELEMENT_SET_NO":999,"REV_AT_EPOCH":1250,"BSTAR":-0.00015936722,"MEAN_MOTION_DOT":-0.00004933,"MEAN_MOTION_DDOT":0},{"OBJECT_NAME":"KUIPER-00386","OBJECT_ID":"2026-098C","EPOCH":"2026-07-20T22:00:01.999584","CLASSIFICATION_TYPE":"U","MEAN_MOTION":15.1589186,"ECCENTRICITY":0.00030514,"INCLINATION":51.8884,"RA_OF_ASC_NODE":265.619,"ARG_OF_PERICENTER":10.8084,"MEAN_ANOMALY":340.6375,"EPHEMERIS_TYPE":0,"NORAD_CAT_ID":68921,"ELEMENT_SET_NO":999,"REV_AT_EPOCH":493,"BSTAR":-0.065721866,"MEAN_MOTION_DOT":-0.01172708,"MEAN_MOTION_DDOT":0},{"OBJECT_NAME":"KUIPER-00388","OBJECT_ID":"2026-098D","EPOCH":"2026-07-20T22:00:01.999584","CLASSIFICATION_TYPE":"U","MEAN_MOTION":14.76422629,"ECCENTRICITY":0.00014765,"INCLINATION":51.8995,"RA_OF_ASC_NODE":273.832,"ARG_OF_PERICENTER":69.4865,"MEAN_ANOMALY":31.4478,"EPHEMERIS_TYPE":0,"NORAD_CAT_ID":68922,"ELEMENT_SET_NO":999,"REV_AT_EPOCH":478,"BSTAR":-0.0037245759,"MEAN_MOTION_DOT":-0.00026247,"MEAN_MOTION_DDOT":0},{"OBJECT_NAME":"KUIPER-00405","OBJECT_ID":"2026-098E","EPOCH":"2026-07-20T22:00:01.999584","CLASSIFICATION_TYPE":"U","MEAN_MOTION":14.83069086,"ECCENTRICITY":0.00030708,"INCLINATION":51.9013,"RA_OF_ASC_NODE":271.4239,"ARG_OF_PERICENTER":336.1463,"MEAN_ANOMALY":254.5789,"EPHEMERIS_TYPE":0,"NORAD_CAT_ID":68923,"ELEMENT_SET_NO":999,"REV_AT_EPOCH":566,"BSTAR":-0.0082810557,"MEAN_MOTION_DOT":-0.00067617,"MEAN_MOTION_DDOT":0}]}
